[{"OBJECT_NAME":"OBJECT D","OBJECT_ID":"2025-108D","EPOCH":"2026-03-09T23:55:58.918944","MEAN_MOTION":15.17741465,"ECCENTRICITY":0.00119931,"INCLINATION":97.4751,"RA_OF_ASC_NODE":145.8386,"ARG_OF_PERICENTER":357.4422,"MEAN_ANOMALY":2.6748,"EPHEMERIS_TYPE":0,"CLASSIFICATION_TYPE":"U","NORAD_CAT_ID":64090,"ELEMENT_SET_NO":999,"REV_AT_EPOCH":4431,"BSTAR":0.00035350679,"MEAN_MOTION_DOT":7.081e-5,"MEAN_MOTION_DDOT":0},{"OBJECT_NAME":"OKEAN-2","OBJECT_ID":"1990-018A","EPOCH":"2026-03-09T23:36:10.183680","MEAN_MOTION":15.15649196,"ECCENTRICITY":0.00049727,"INCLINATION":82.5017,"RA_OF_ASC_NODE":331.5686,"ARG_OF_PERICENTER":303.4328,"MEAN_ANOMALY":67.9927,"EPHEMERIS_TYPE":0,"CLASSIFICATION_TYPE":"U","NORAD_CAT_ID":20510,"ELEMENT_SET_NO":999,"REV_AT_EPOCH":93903,"BSTAR":0.00028442133,"MEAN_MOTION_DOT":5.437e-5,"MEAN_MOTION_DDOT":0}]
